CCSDS_OMM_VERS = 2.0
CREATION_DATE  = 
ORIGINATOR     = 

OBJECT_NAME    = H-2A R/B
OBJECT_ID      = 2012-025E
CENTER_NAME    = EARTH
REF_FRAME      = TEME
TIME_SYSTEM    = UTC
MEAN_ELEMENT_THEORY = SGP/SGP4

EPOCH          = 2025-11-15T20:31:39.584064
MEAN_MOTION    = 14.94183236
ECCENTRICITY   = .0044854
INCLINATION    = 98.4545
RA_OF_ASC_NODE = 273.0248
ARG_OF_PERICENTER = 326.7157
MEAN_ANOMALY   = 33.1241

EPHEMERIS_TYPE = 0
CLASSIFICATION_TYPE = U
NORAD_CAT_ID   = 38341
ELEMENT_SET_NO = 999
REV_AT_EPOCH   = 73121
BSTAR          = .48754E-3
MEAN_MOTION_DOT = .5258E-4
MEAN_MOTION_DDOT = 0

CCSDS_OMM_VERS = 2.0
CREATION_DATE  = 
ORIGINATOR     = 

OBJECT_NAME    = SHIJIAN-16 (SJ-16)
OBJECT_ID      = 2013-057A
CENTER_NAME    = EARTH
REF_FRAME      = TEME
TIME_SYSTEM    = UTC
MEAN_ELEMENT_THEORY = SGP/SGP4

EPOCH          = 2025-11-15T20:18:45.396000
MEAN_MOTION    = 14.91867266
ECCENTRICITY   = .0016528
INCLINATION    = 74.9748
RA_OF_ASC_NODE = 40.5339
ARG_OF_PERICENTER = 24.7497
MEAN_ANOMALY   = 335.4480

EPHEMERIS_TYPE = 0
CLASSIFICATION_TYPE = U
NORAD_CAT_ID   = 39358
ELEMENT_SET_NO = 999
REV_AT_EPOCH   = 65452
BSTAR          = .35578E-3
MEAN_MOTION_DOT = .3577E-4
MEAN_MOTION_DDOT = 0

CCSDS_OMM_VERS = 2.0
CREATION_DATE  = 
ORIGINATOR     = 

OBJECT_NAME    = SL-4 R/B
OBJECT_ID      = 2014-021B
CENTER_NAME    = EARTH
REF_FRAME      = TEME
TIME_SYSTEM    = UTC
MEAN_ELEMENT_THEORY = SGP/SGP4

EPOCH          = 2025-11-15T14:50:31.774848
MEAN_MOTION    = 15.35719845
ECCENTRICITY   = .0103762
INCLINATION    = 51.6058
RA_OF_ASC_NODE = 172.3074
ARG_OF_PERICENTER = 48.6828
MEAN_ANOMALY   = 312.3028

EPHEMERIS_TYPE = 0
CLASSIFICATION_TYPE = U
NORAD_CAT_ID   = 39679
ELEMENT_SET_NO = 999
REV_AT_EPOCH   = 63872
BSTAR          = .41964E-3
MEAN_MOTION_DOT = .17309E-3
MEAN_MOTION_DDOT = 0

CCSDS_OMM_VERS = 2.0
CREATION_DATE  = 
ORIGINATOR     = 

OBJECT_NAME    = ALOS-2
OBJECT_ID      = 2014-029A
CENTER_NAME    = EARTH
REF_FRAME      = TEME
TIME_SYSTEM    = UTC
MEAN_ELEMENT_THEORY = SGP/SGP4

EPOCH          = 2025-11-15T19:48:13.982112
MEAN_MOTION    = 14.79461518
ECCENTRICITY   = .0001473
INCLINATION    = 97.9235
RA_OF_ASC_NODE = 55.0535
ARG_OF_PERICENTER = 99.5892
MEAN_ANOMALY   = 260.5486

EPHEMERIS_TYPE = 0
CLASSIFICATION_TYPE = U
NORAD_CAT_ID   = 39766
ELEMENT_SET_NO = 999
REV_AT_EPOCH   = 62003
BSTAR          = .41955E-3
MEAN_MOTION_DOT = .3082E-4
MEAN_MOTION_DDOT = 0

CCSDS_OMM_VERS = 2.0
CREATION_DATE  = 
ORIGINATOR     = 

OBJECT_NAME    = YAOGAN-29
OBJECT_ID      = 2015-069A
CENTER_NAME    = EARTH
REF_FRAME      = TEME
TIME_SYSTEM    = UTC
MEAN_ELEMENT_THEORY = SGP/SGP4

EPOCH          = 2025-11-15T21:29:55.879296
MEAN_MOTION    = 14.82840295
ECCENTRICITY   = .0001994
INCLINATION    = 98.0248
RA_OF_ASC_NODE = 342.9778
ARG_OF_PERICENTER = 42.4635
MEAN_ANOMALY   = 317.6732

EPHEMERIS_TYPE = 0
CLASSIFICATION_TYPE = U
NORAD_CAT_ID   = 41038
ELEMENT_SET_NO = 999
REV_AT_EPOCH   = 53901
BSTAR          = .13331E-3
MEAN_MOTION_DOT = .1025E-4
MEAN_MOTION_DDOT = 0

CCSDS_OMM_VERS = 2.0
CREATION_DATE  = 
ORIGINATOR     = 

OBJECT_NAME    = ASTRO-H (HITOMI)
OBJECT_ID      = 2016-012A
CENTER_NAME    = EARTH
REF_FRAME      = TEME
TIME_SYSTEM    = UTC
MEAN_ELEMENT_THEORY = SGP/SGP4

EPOCH          = 2025-11-15T20:07:39.701280
MEAN_MOTION    = 15.09120574
ECCENTRICITY   = .0009882
INCLINATION    = 31.0011
RA_OF_ASC_NODE = 10.7614
ARG_OF_PERICENTER = 266.9833
MEAN_ANOMALY   = 92.9674

EPHEMERIS_TYPE = 0
CLASSIFICATION_TYPE = U
NORAD_CAT_ID   = 41337
ELEMENT_SET_NO = 999
REV_AT_EPOCH   = 53501
BSTAR          = .26894E-3
MEAN_MOTION_DOT = .4469E-4
MEAN_MOTION_DDOT = 0

CCSDS_OMM_VERS = 2.0
CREATION_DATE  = 
ORIGINATOR     = 

OBJECT_NAME    = HXMT (HUIYAN)
OBJECT_ID      = 2017-034A
CENTER_NAME    = EARTH
REF_FRAME      = TEME
TIME_SYSTEM    = UTC
MEAN_ELEMENT_THEORY = SGP/SGP4

EPOCH          = 2025-11-15T21:50:44.088864
MEAN_MOTION    = 15.15854357
ECCENTRICITY   = .0033922
INCLINATION    = 43.0144
RA_OF_ASC_NODE = 288.4701
ARG_OF_PERICENTER = 236.9763
MEAN_ANOMALY   = 122.7823

EPHEMERIS_TYPE = 0
CLASSIFICATION_TYPE = U
NORAD_CAT_ID   = 42758
ELEMENT_SET_NO = 999
REV_AT_EPOCH   = 46526
BSTAR          = .52907E-3
MEAN_MOTION_DOT = .10229E-3
MEAN_MOTION_DDOT = 0

CCSDS_OMM_VERS = 2.0
CREATION_DATE  = 
ORIGINATOR     = 

OBJECT_NAME    = CZ-2C R/B
OBJECT_ID      = 2018-054D
CENTER_NAME    = EARTH
REF_FRAME      = TEME
TIME_SYSTEM    = UTC
MEAN_ELEMENT_THEORY = SGP/SGP4

EPOCH          = 2025-11-15T11:21:13.405248
MEAN_MOTION    = 15.68206449
ECCENTRICITY   = .0023753
INCLINATION    = 35.1363
RA_OF_ASC_NODE = 4.9515
ARG_OF_PERICENTER = 236.2570
MEAN_ANOMALY   = 123.5897

EPHEMERIS_TYPE = 0
CLASSIFICATION_TYPE = U
NORAD_CAT_ID   = 43521
ELEMENT_SET_NO = 999
REV_AT_EPOCH   = 41076
BSTAR          = .783E-3
MEAN_MOTION_DOT = .9306E-3
MEAN_MOTION_DDOT = 0

CCSDS_OMM_VERS = 2.0
CREATION_DATE  = 
ORIGINATOR     = 

OBJECT_NAME    = SAOCOM 1A
OBJECT_ID      = 2018-076A
CENTER_NAME    = EARTH
REF_FRAME      = TEME
TIME_SYSTEM    = UTC
MEAN_ELEMENT_THEORY = SGP/SGP4

EPOCH          = 2025-11-15T19:15:53.216928
MEAN_MOTION    = 14.82170843
ECCENTRICITY   = .0001386
INCLINATION    = 97.8862
RA_OF_ASC_NODE = 144.6158
ARG_OF_PERICENTER = 91.0198
MEAN_ANOMALY   = 269.1174

EPHEMERIS_TYPE = 0
CLASSIFICATION_TYPE = U
NORAD_CAT_ID   = 43641
ELEMENT_SET_NO = 999
REV_AT_EPOCH   = 38449
BSTAR          = .13625E-3
MEAN_MOTION_DOT = .1033E-4
MEAN_MOTION_DDOT = 0

CCSDS_OMM_VERS = 2.0
CREATION_DATE  = 
ORIGINATOR     = 

OBJECT_NAME    = H-2A R/B
OBJECT_ID      = 2018-084L
CENTER_NAME    = EARTH
REF_FRAME      = TEME
TIME_SYSTEM    = UTC
MEAN_ELEMENT_THEORY = SGP/SGP4

EPOCH          = 2025-11-15T11:23:08.234304
MEAN_MOTION    = 15.36094143
ECCENTRICITY   = .0029114
INCLINATION    = 98.8796
RA_OF_ASC_NODE = 147.9319
ARG_OF_PERICENTER = 58.9678
MEAN_ANOMALY   = 301.4414

EPHEMERIS_TYPE = 0
CLASSIFICATION_TYPE = U
NORAD_CAT_ID   = 43682
ELEMENT_SET_NO = 999
REV_AT_EPOCH   = 38821
BSTAR          = .586E-3
MEAN_MOTION_DOT = .2082E-3
MEAN_MOTION_DDOT = 0

CCSDS_OMM_VERS = 2.0
CREATION_DATE  = 
ORIGINATOR     = 

OBJECT_NAME    = SAOCOM 1B
OBJECT_ID      = 2020-059A
CENTER_NAME    = EARTH
REF_FRAME      = TEME
TIME_SYSTEM    = UTC
MEAN_ELEMENT_THEORY = SGP/SGP4

EPOCH          = 2025-11-15T20:00:52.795296
MEAN_MOTION    = 14.82178150
ECCENTRICITY   = .0001466
INCLINATION    = 97.8851
RA_OF_ASC_NODE = 143.7487
ARG_OF_PERICENTER = 86.3754
MEAN_ANOMALY   = 273.7626

EPHEMERIS_TYPE = 0
CLASSIFICATION_TYPE = U
NORAD_CAT_ID   = 46265
ELEMENT_SET_NO = 999
REV_AT_EPOCH   = 28188
BSTAR          = .13904E-3
MEAN_MOTION_DOT = .1055E-4
MEAN_MOTION_DDOT = 0

CCSDS_OMM_VERS = 2.0
CREATION_DATE  = 
ORIGINATOR     = 

OBJECT_NAME    = CSS (TIANHE)
OBJECT_ID      = 2021-035A
CENTER_NAME    = EARTH
REF_FRAME      = TEME
TIME_SYSTEM    = UTC
MEAN_ELEMENT_THEORY = SGP/SGP4

EPOCH          = 2025-11-15T19:20:49.288128
MEAN_MOTION    = 15.59106574
ECCENTRICITY   = .0006183
INCLINATION    = 41.4658
RA_OF_ASC_NODE = 180.1367
ARG_OF_PERICENTER = 168.1938
MEAN_ANOMALY   = 191.9046

EPHEMERIS_TYPE = 0
CLASSIFICATION_TYPE = U
NORAD_CAT_ID   = 48274
ELEMENT_SET_NO = 999
REV_AT_EPOCH   = 25982
BSTAR          = .21257E-3
MEAN_MOTION_DOT = .16802E-3
MEAN_MOTION_DDOT = 0

