H-2A R/B                
1 38341U 12025E   25319.85531926  .00005258  00000+0  48754-3 0  9998
2 38341  98.4545 273.0248 0044854 326.7157  33.1241 14.94183236731217
SHIJIAN-16 (SJ-16)      
1 39358U 13057A   25319.84635875  .00003577  00000+0  35578-3 0  9992
2 39358  74.9748  40.5339 0016528  24.7497 335.4480 14.91867266654527
SL-4 R/B                
1 39679U 14021B   25319.61842332  .00017309  00000+0  41964-3 0  9997
2 39679  51.6058 172.3074 0103762  48.6828 312.3028 15.35719845638723
ALOS-2                  
1 39766U 14029A   25319.82516183  .00003082  00000+0  41955-3 0  9990
2 39766  97.9235  55.0535 0001473  99.5892 260.5486 14.79461518620036
YAOGAN-29               
1 41038U 15069A   25319.89578564  .00001025  00000+0  13331-3 0  9990
2 41038  98.0248 342.9778 0001994  42.4635 317.6732 14.82840295539016
ASTRO-H (HITOMI)        
1 41337U 16012A   25319.83865395  .00004469  00000+0  26894-3 0  9999
2 41337  31.0011  10.7614 0009882 266.9833  92.9674 15.09120574535014
HXMT (HUIYAN)           
1 42758U 17034A   25319.91023251  .00010229  00000+0  52907-3 0  9993
2 42758  43.0144 288.4701 0033922 236.9763 122.7823 15.15854357465261
CZ-2C R/B               
1 43521U 18054D   25319.47307182  .00093060  00000+0  78300-3 0  9993
2 43521  35.1363   4.9515 0023753 236.2570 123.5897 15.68206449410765
SAOCOM 1A               
1 43641U 18076A   25319.80269927  .00001033  00000+0  13625-3 0  9999
2 43641  97.8862 144.6158 0001386  91.0198 269.1174 14.82170843384491
H-2A R/B                
1 43682U 18084L   25319.47440086  .00020820  00000+0  58600-3 0  9990
2 43682  98.8796 147.9319 0029114  58.9678 301.4414 15.36094143388211
SAOCOM 1B               
1 46265U 20059A   25319.83394439  .00001055  00000+0  13904-3 0  9992
2 46265  97.8851 143.7487 0001466  86.3754 273.7626 14.82178150281884
CSS (TIANHE)            
1 48274U 21035A   25319.80612602  .00016802  00000+0  21257-3 0  9997
2 48274  41.4658 180.1367 0006183 168.1938 191.9046 15.59106574259824
